[{"OBJECT_NAME":"STARLINK-4697","OBJECT_ID":"2022-107AC","EPOCH":"2026-03-09T22:38:20.637888","MEAN_MOTION":15.08825939,"ECCENTRICITY":0.00011893,"INCLINATION":53.2161,"RA_OF_ASC_NODE":252.8579,"ARG_OF_PERICENTER":110.2879,"MEAN_ANOMALY":249.8241,"EPHEMERIS_TYPE":0,"CLASSIFICATION_TYPE":"U","NORAD_CAT_ID":53726,"ELEMENT_SET_NO":999,"REV_AT_EPOCH":19445,"BSTAR":-7.7919888e-5,"MEAN_MOTION_DOT":-1.527e-5,"MEAN_MOTION_DDOT":0},{"OBJECT_NAME":"EXPLORER 7","OBJECT_ID":"1959-009A","EPOCH":"2026-03-09T22:10:28.426368","MEAN_MOTION":15.26652664,"ECCENTRICITY":0.00808181,"INCLINATION":50.2405,"RA_OF_ASC_NODE":230.2318,"ARG_OF_PERICENTER":85.1115,"MEAN_ANOMALY":275.9066,"EPHEMERIS_TYPE":0,"CLASSIFICATION_TYPE":"U","NORAD_CAT_ID":22,"ELEMENT_SET_NO":999,"REV_AT_EPOCH":78517,"BSTAR":0.00064628265,"MEAN_MOTION_DOT":0.00018598,"MEAN_MOTION_DDOT":0}]
